GPS BIIF-8  (PRN 03)    
1 40294U 14068A   25098.65845661 -.00000069  00000+0  00000+0 0  9997
2 40294  56.6700  47.7448 0057681  63.9775 296.5934  2.00578653 76493
COSMOS 2501 (702K)      
1 40315U 14075A   25098.29725935 -.00000043  00000+0  00000+0 0  9992
2 40315  63.6156 205.4312 0020433 207.2877 152.6021  2.13101409 80583
GPS BIIF-9  (PRN 26)    
1 40534U 15013A   25098.30508055 -.00000052  00000+0  00000+0 0  9992
2 40534  53.2549 222.1714 0097653  34.7130 325.8874  2.00547376 73105
GSAT0203 (GALILEO 7)    
1 40544U 15017A   25096.20775534 -.00000109  00000+0  00000+0 0  9995
2 40544  56.8935 353.4988 0008265 280.7881  79.1483  1.70474712 61754
GSAT0204 (GALILEO 8)    
1 40545U 15017B   25098.80911173 -.00000106  00000+0  00000+0 0  9992
2 40545  56.9050 353.4452 0002964 284.9354  75.0654  1.70475593 62463
IRNSS-1D                
1 40547U 15018A   25098.84426889 -.00000312  00000+0  00000+0 0  9993
2 40547  26.9061 247.5452 0020954 184.9758 180.5166  1.00276681 36633
BEIDOU-3S IGSO-1S (C31) 
1 40549U 15019A   25098.53705588 -.00000146  00000+0  00000+0 0  9993
2 40549  50.0163 300.6767 0037485 190.9828 351.1491  1.00293178 36714
GPS BIIF-10 (PRN 08)    
1 40730U 15033A   25097.96639227 -.00000023  00000+0  00000+0 0  9997
2 40730  54.3392 284.9919 0104790  24.4671 336.0272  2.00551670 71264
BEIDOU-3S M2S (C58)     
1 40748U 15037A   25098.92645227 -.00000063  00000+0  00000+0 0  9998
2 40748  55.2480 316.9520 0008161 267.4142  92.5314  1.86229296 66031
BEIDOU-3S M1S (C57)     
1 40749U 15037B   25098.65251684 -.00000062  00000+0  00000+0 0  9998
2 40749  55.2443 316.9542 0004284  19.9803 340.0755  1.86253897 66035
GSAT0205 (GALILEO 9)    
1 40889U 15045A   25097.99073310 -.00000032  00000+0  00000+0 0  9993
2 40889  55.0959 233.6238 0005001  47.5360 312.4527  1.70473939 59597
GSAT0206 (GALILEO 10)   
1 40890U 15045B   25098.79793698 -.00000034  00000+0  00000+0 0  9994
2 40890  55.0941 233.5968 0002851  50.2533 309.7159  1.70473932 59630
BEIDOU-3S IGSO-2S (C56) 
1 40938U 15053A   25098.91272795 -.00000143  00000+0  00000+0 0  9991
2 40938  49.8974 263.9279 0057010 186.2467 171.3719  1.00283595 34999
GPS BIIF-11 (PRN 10)    
1 41019U 15062A   25098.51945835 -.00000068  00000+0  00000+0 0  9996
2 41019  56.6471  47.6062 0102881 228.6741 130.4186  2.00566819 69118
GSAT-15 (GAGAN/PRN 139) 
1 41028U 15065A   25098.91220667 -.00000270  00000+0  00000+0 0  9997
2 41028   0.0271  99.5799 0002992 300.5146 219.2020  1.00272064 34449
GSAT0209 (GALILEO 12)   
1 41174U 15079A   25097.20690152  .00000046  00000+0  00000+0 0  9995
2 41174  55.5702 113.2318 0005344 314.1899  45.8143  1.70474465 57345
GSAT0208 (GALILEO 11)   
1 41175U 15079B   25098.01344692  .00000050  00000+0  00000+0 0  9996
2 41175  55.5694 113.2069 0004786 315.0283  44.9831  1.70474402 57777
GPS BIIF-12 (PRN 32)    
1 41328U 16007A   25099.10287977  .00000056  00000+0  00000+0 0  9997
2 41328  55.2654 106.6889 0087528 242.2059 116.9428  2.00573120 67171
COSMOS 2514 (751)       
1 41330U 16008A   25097.81154657 -.00000048  00000+0  00000+0 0  9997
2 41330  65.2675 327.9130 0008609 206.4700 153.5386  2.13102634 71349
IRNSS-1F                
1 41384U 16015A   25099.11429035  .00000152  00000+0  00000+0 0  9999
2 41384   4.2708 108.0345 0019114 188.9690 334.2255  1.00269535 33305
BEIDOU-2 IGSO-6 (C13)   
1 41434U 16021A   25098.81052734 -.00000155  00000+0  00000+0 0  9990
2 41434  59.6159  42.3719 0052608 230.3472 310.0489  1.00258152 33129
IRNSS-1G                
1 41469U 16027A   25098.94105855 -.00000342  00000+0  00000+0 0  9999
2 41469   4.1333 108.9751 0006523 323.6730 233.0515  1.00275719 32827
GSAT0211 (GALILEO 14)   
1 41549U 16030A   25099.31026241 -.00000034  00000+0  00000+0 0  9993
2 41549  55.2423 233.6258 0002677  15.0522 344.8988  1.70474037 55256
GSAT0210 (GALILEO 13)   
1 41550U 16030B   25098.39488345 -.00000033  00000+0  00000+0 0  9998
2 41550  55.2416 233.6495 0001915 200.4328 159.5048  1.70474032 55254
BEIDOU-2 G7 (C03)       
1 41586U 16037A   25098.91550812 -.00000364  00000+0  00000+0 0  9998
2 41586   1.5968  67.9560 0010599 337.1570 232.3553  1.00267915  2532
E 117 W B (WAAS/PRN 131)
1 41589U 16038B   25099.51307450 -.00000021  00000+0  00000+0 0  9997
2 41589   0.0148  62.9306 0000147  81.5782 121.1935  1.00270510 32352
GSAT0207 (GALILEO 15)   
1 41859U 16069A   25098.67350915  .00000051  00000+0  00000+0 0  9993
2 41859  55.2384 113.1208 0005805 303.3947  56.6007  1.70474416 51991
GSAT0212 (GALILEO 16)   
1 41860U 16069B   25097.35428609  .00000045  00000+0  00000+0 0  9998
2 41860  55.2347 113.1532 0004193 323.7431  36.2769  1.70474604 52220
GSAT0213 (GALILEO 17)   
1 41861U 16069C   25099.48211867  .00000053  00000+0  00000+0 0  9990
2 41861  55.2383 113.1014 0005876 288.8665  71.1209  1.70474959 52258
GSAT0214 (GALILEO 18)   
1 41862U 16069D   25096.69475763  .00000042  00000+0  00000+0 0  9996
2 41862  55.2353 113.1719 0004868 291.5847  68.4098  1.70474696 52209
SES-15 (WAAS/PRN 133)   
1 42709U 17026A   25099.51072873  .00000050  00000+0  00000+0 0  9999
2 42709   0.0518  46.7403 0000516 311.5263 254.4133  1.00270080 29837
QZS-2 (QZSS/PRN 194)    
1 42738U 17028A   25098.73239212 -.00000243  00000+0  00000+0 0  9993
2 42738  40.1045 249.4858 0741517 270.5883  80.2046  1.00253811  3260
QZS-3 (QZSS/PRN 199)    
1 42917U 17048A   25098.91880958 -.00000361  00000+0  00000+0 0  9994
2 42917   0.0529 170.8104 0001833 206.7679 277.5681  1.00267346 27907
COSMOS 2522 (752)       
1 42939U 17055A   25099.05834663 -.00000040  00000+0  00000+0 0  9998
2 42939  64.0771 206.6656 0008005 233.7898 126.1321  2.13101850 58727
QZS-4 (QZSS/PRN 195)    
1 42965U 17062A   25098.55600122 -.00000346  00000+0  00000+0 0  9999
2 42965  40.3638 349.0288 0747457 270.3778 277.7707  1.00271901 27450
BEIDOU-3 M1 (C19)       
1 43001U 17069A   25099.27364713  .00000004  00000+0  00000+0 0  9991
2 43001  56.3134  77.4184 0012527 308.7079  51.1689  1.86231408 50529
BEIDOU-3 M2 (C20)       
1 43002U 17069B   25099.21146058  .00000004  00000+0  00000+0 0  9996
2 43002  56.3122  77.4567 0010199 327.7185  32.2081  1.86230938 50516
GSAT0215 (GALILEO 19)   
1 43055U 17079A   25097.18490354 -.00000028  00000+0  00000+0 0  9997
2 43055  55.2209 233.5021 0000395 258.5215 101.4236  1.70474622 45552
GSAT0216 (GALILEO 20)   
1 43056U 17079B   25098.64952424 -.00000033  00000+0  00000+0 0  9997
2 43056  55.2214 233.4617 0001839 287.6090  72.3155  1.70474810 45563
GSAT0217 (GALILEO 21)   
1 43057U 17079C   25097.11038625 -.00000027  00000+0  00000+0 0  9990
2 43057  55.2200 233.5024 0001601 329.2377  30.7027  1.70474679 45558
GSAT0218 (GALILEO 22)   
1 43058U 17079D   25098.50359034 -.00000033  00000+0  00000+0 0  9992
2 43058  55.2187 233.4617 0002286 279.2582  80.6609  1.70474673 45578
BEIDOU-3 M7 (C27)       
1 43107U 18003A   25098.95788426 -.00000065  00000+0  00000+0 0  9990
2 43107  54.7061 317.4117 0004962  69.6063 290.4859  1.86232564 49271
BEIDOU-3 M8 (C28)       
1 43108U 18003B   25098.90074563 -.00000065  00000+0  00000+0 0  9996
2 43108  54.6992 317.3978 0002676 283.1930  76.8159  1.86231049 49270
BEIDOU-3 M4 (C22)       
1 43207U 18018A   25098.26791302  .00000009  00000+0  00000+0 0  9995
2 43207  56.2714  77.5306 0007475 348.1422  11.8320  1.86231279 48644
BEIDOU-3 M3 (C21)       
1 43208U 18018B   25098.33443345  .00000009  00000+0  00000+0 0  9995
2 43208  56.2709  77.5325 0010221 318.4263  41.4876  1.86231312 48649
BEIDOU-3 M9 (C29)       
1 43245U 18029A   25099.09002184 -.00000062  00000+0  00000+0 0  9994
2 43245  54.5805 315.0850 0000754  34.5098 325.5319  1.86232849 47815
BEIDOU-3 M10 (C30)      
1 43246U 18029B   25099.02137070 -.00000062  00000+0  00000+0 0  9991
2 43246  54.5781 315.1153 0004886  22.5640 337.4944  1.86229113 47801
COSMOS 2527 (756)       
1 43508U 18053A   25098.54898795  .00000053  00000+0  00000+0 0  9992
2 43508  65.3427  88.4301 0009462 247.0977 112.8115  2.13102253 53017
BEIDOU-2 IGSO-7 (C16)   
1 43539U 18057A   25098.82663097 -.00000134  00000+0  00000+0 0  9997
2 43539  55.1567 166.8230 0087417 235.7847 205.5705  1.00278306 24775
GSAT0221 (GALILEO 25)   
1 43564U 18060A   25098.40560706 -.00000107  00000+0  00000+0 0  9996
2 43564  57.2794 353.5143 0004472 311.4528  48.5416  1.70475588 41753
GSAT0222 (GALILEO 26)   
1 43565U 18060B   25096.86480187 -.00000108  00000+0  00000+0 0  9990
2 43565  57.2832 353.5585 0003039 288.0298  71.9670  1.70475282 41773
GSAT0219 (GALILEO 23)   
1 43566U 18060C   25097.67284560 -.00000108  00000+0  00000+0 0  9998
2 43566  57.2823 353.5384 0004112 323.2561  36.7470  1.70475521 41761
GSAT0220 (GALILEO 24)   
1 43567U 18060D   25099.06682441 -.00000105  00000+0  00000+0 0  9991
2 43567  57.2817 353.5005 0004274 315.4006  44.5996  1.70475721 41763
BEIDOU-3 M5 (C23)       
1 43581U 18062A   25098.17283563 -.00000050  00000+0  00000+0 0  9991
2 43581  54.1032 197.0946 0003099 284.1036  75.8666  1.86228737 45538
BEIDOU-3 M6 (C24)       
1 43582U 18062B   25098.03720211 -.00000051  00000+0  00000+0 0  9994
2 43582  54.1030 197.0884 0005002  31.1904 328.8436  1.86229510 45534
BEIDOU-3 M12 (C26)      
1 43602U 18067A   25096.36149724 -.00000049  00000+0  00000+0 0  9997
2 43602  54.1961 195.8539 0007536  31.7248 328.3277  1.86227864 44980
BEIDOU-3 M11 (C25)      
1 43603U 18067B   25097.03230388 -.00000052  00000+0  00000+0 0  9994
2 43603  54.1933 195.7955 0004191  22.5044 337.5204  1.86227322 45024
BEIDOU-3 M13 (C32)      
1 43622U 18072A   25099.13947324  .00000003  00000+0  00000+0 0  9994
2 43622  56.2441  77.0248 0009026 307.5669  52.3400  1.86231311 44572
BEIDOU-3 M14 (C33)      
1 43623U 18072B   25099.00495613  .00000004  00000+0  00000+0 0  9991
2 43623  56.2458  77.0228 0006790 328.5770  31.3717  1.86231314 44560
BEIDOU-3 M16 (C35)      
1 43647U 18078A   25098.09163328 -.00000061  00000+0  00000+0 0  9990
2 43647  54.4778 315.1943 0008139  27.0427 333.0362  1.86232346 44058
